NORAD_CAT_ID,OBJECT_NAME,OBJECT_TYPE,EPOCH,MEAN_MOTION,ECCENTRICITY,INCLINATION,RA_OF_ASC_NODE,ARG_OF_PERICENTER,MEAN_ANOMALY,BSTAR,MEAN_MOTION_DOT,MEAN_MOTION_DDOT,TLE_LINE0,TLE_LINE1,TLE_LINE2,SEMIMAJOR_AXIS,PERIOD,APOGEE,PERIGEE,DECAYED
53824.0,STARLINK-4757,PAYLOAD,2022-10-14 14:00:01,15.72848701,0.0001337,53.2166,132.4081,83.0548,245.0889,0.0039521,0.00585709,0.0,0 STARLINK-4757,1 53824U 22114G   22287.58334491  .00585709  00000-0  39521-2 0  9996,2 53824  53.2166 132.4081 0001337  83.0548 245.0889 15.72848701  1301,6728.897,91.554,351.662,349.862,0.0
53824.0,STARLINK-4757,PAYLOAD,2022-10-14 16:00:00,15.73164677,0.0001486,53.217,131.996,89.0593,351.151,0.00048325,0.00067646,0.0,0 STARLINK-4757,1 53824U 22114G   22287.66667824  .00067646  00000-0  48325-3 0  9992,2 53824  53.2170 131.9960 0001486  89.0593 351.1510 15.73164677  4618,6727.996,91.535,350.861,348.861,0.0
53824.0,STARLINK-4757,PAYLOAD,2022-10-14 20:00:01,15.73203619,0.0001428,53.2173,131.1729,83.0002,221.6597,7.9608e-06,4.97e-06,0.0,0 STARLINK-4757,1 53824U 22114G   22287.83334491  .00000497  00000-0  79608-5 0  9993,2 53824  53.2173 131.1729 0001428  83.0002 221.6597 15.73203619  1300,6727.885,91.533,350.711,348.789,0.0
53824.0,STARLINK-4757,PAYLOAD,2022-10-15 06:00:00,15.73098139,0.0001248,53.2171,129.1107,101.7837,44.0973,0.0011890999999999,0.0016891999999999,0.0,0 STARLINK-4757,1 53824U 22114G   22288.25001157  .00168920  00000-0  11891-2 0  9993,2 53824  53.2171 129.1107 0001248 101.7837  44.0973 15.73098139  4700,6728.186,91.539,350.89,349.211,0.0
53824.0,STARLINK-4757,PAYLOAD,2022-10-15 14:00:01,15.73245107,0.0001014999999999,53.2155,127.4639,87.4536,147.5115,-0.00015479,-0.00022327,0.0,0 STARLINK-4757,1 53824U 22114G   22288.58334491 -.00022327  00000-0 -15479-3 0  9998,2 53824  53.2155 127.4639 0001015  87.4536 147.5115 15.73245107  4752,6727.767,91.531,350.314,348.949,0.0
53824.0,STARLINK-4757,PAYLOAD,2022-10-15 22:00:01,15.73433247,9.42e-05,53.2163,125.8148,84.4774,239.5502,-0.0055556999999999,-0.00723713,0.0,0 STARLINK-4757,1 53824U 22114G   22288.91668981 -.00723713  00000-0 -55557-2 0  9996,2 53824  53.2163 125.8148 0000942  84.4774 239.5502 15.73433247  4809,6727.23,91.52,349.72900000000016,348.462,0.0
53824.0,STARLINK-4757,PAYLOAD,2022-10-16 06:00:00,15.73143556,0.0001266,53.2151,124.1656,80.7938,332.0196,-0.00037448,-0.0005272,0.0,0 STARLINK-4757,1 53824U 22114G   22289.25001157 -.00052720  00000-0 -37448-3 0  9993,2 53824  53.2151 124.1656 0001266  80.7938 332.0196 15.73143556  4857,6728.056,91.536,350.773,349.069,0.0
53824.0,STARLINK-4757,PAYLOAD,2022-10-16 14:00:01,15.73110323,0.0001199999999999,53.2155,122.5158,85.7287,55.9153,0.0005533,0.00077451,0.0,0 STARLINK-4757,1 53824U 22114G   22289.58334491  .00077451  00000-0  55330-3 0  9995,2 53824  53.2155 122.5158 0001200  85.7287  55.9153 15.73110323  4917,6728.151,91.538,350.8230000000001,349.208,0.0
53824.0,STARLINK-4757,PAYLOAD,2022-10-16 22:00:00,15.73138795,0.0001264999999999,53.2158,120.8681,68.1901,162.3106,0.00075703,0.00106702,0.0,0 STARLINK-4757,1 53824U 22114G   22289.91667824  .00106702  00000-0  75703-3 0  9999,2 53824  53.2158 120.8681 0001265  68.1901 162.3106 15.73138795  1305,6728.07,91.537,350.786,349.084,0.0
53824.0,STARLINK-4757,PAYLOAD,2022-10-17 06:00:00,15.73226638,0.0001228,53.2162,119.2162,75.1679,244.2194,-0.00050373,-0.00070802,0.0,0 STARLINK-4757,1 53824U 22114G   22290.25001157 -.00070802  00000-0 -50373-3 0  9998,2 53824  53.2162 119.2162 0001228  75.1679 244.2194 15.73226638  5018,6727.819,91.532,350.51,348.858,0.0
53824.0,STARLINK-4757,PAYLOAD,2022-10-17 14:00:01,15.73222959,0.0001184,53.2158,117.5666,80.0198,328.3499,-0.00012944,-0.00018763,0.0,0 STARLINK-4757,1 53824U 22114G   22290.58334491 -.00018763  00000-0 -12944-3 0  9994,2 53824  53.2158 117.5666 0001184  80.0198 328.3499 15.73222959  5064,6727.83,91.532,350.491,348.898,0.0
53824.0,STARLINK-4757,PAYLOAD,2022-10-17 22:00:00,15.73198188,0.000127,53.2152,115.9203,63.1828,74.1038,5.7805e-05,7.499e-05,0.0,0 STARLINK-4757,1 53824U 22114G   22290.91667824  .00007499  00000-0  57805-4 0  9998,2 53824  53.2152 115.9203 0001270  63.1828  74.1038 15.73198188  1309,6727.9,91.533,350.62,348.911,0.0
53824.0,STARLINK-4757,PAYLOAD,2022-10-18 08:00:01,15.73183122,0.0001105,53.2149,113.8563,73.4989,264.9498,-0.00013794,-0.00019918,0.0,0 STARLINK-4757,1 53824U 22114G   22291.33334491 -.00019918  00000-0 -13794-3 0  9995,2 53824  53.2149 113.8563 0001105  73.4989 264.9498 15.73183122  5181,6727.943,91.534,350.552,349.065,0.0
53824.0,STARLINK-4757,PAYLOAD,2022-10-18 14:00:01,15.73166235,0.000105,53.2153,112.6195,70.7654,244.3654,0.00034056,0.00047376,0.0,0 STARLINK-4757,1 53824U 22114G   22291.58334491  .00047376  00000-0  34056-3 0  9993,2 53824  53.2153 112.6195 0001050  70.7654 244.3654 15.73166235  1304,6727.991,91.535,350.56300000000016,349.15,0.0
53824.0,STARLINK-4757,PAYLOAD,2022-10-18 22:00:00,15.73202676,0.0001399,53.2176,110.9664,73.5585,330.5465,2.1263000000000006e-05,2.365e-05,0.0,0 STARLINK-4757,1 53824U 22114G   22291.91667824  .00002365  00000-0  21263-4 0  9995,2 53824  53.2176 110.9664 0001399  73.5585 330.5465 15.73202676  5279,6727.888000000001,91.533,350.694,348.811,0.0
53824.0,STARLINK-4757,PAYLOAD,2022-10-19 14:00:01,15.73211312,0.0001464,53.2152,107.6711,67.1064,154.8416,-7.644100000000001e-05,-0.00011339,0.0,0 STARLINK-4757,1 53824U 22114G   22292.58334491 -.00011339  00000-0 -76441-4 0  9991,2 53824  53.2152 107.6711 0001464  67.1064 154.8416 15.73211312  1303,6727.863,91.533,350.713,348.74300000000005,0.0
53824.0,STARLINK-4757,PAYLOAD,2022-10-19 22:00:00,15.73204877,0.000154,53.2146,106.0234,57.4312,253.452,0.00030846,0.00042901,0.0,0 STARLINK-4757,1 53824U 22114G   22292.91667824  .00042901  00000-0  30846-3 0  9992,2 53824  53.2146 106.0234 0001540  57.4312 253.4520 15.73204877  1302,6727.880999999999,91.533,350.782,348.71,0.0
53824.0,STARLINK-4757,PAYLOAD,2022-10-20 06:00:00,15.73216482,0.0001177999999999,53.2145,104.3718,60.5891,339.2561,-0.00014989,-0.00021616,0.0,0 STARLINK-4757,1 53824U 22114G   22293.25001157 -.00021616  00000-0 -14989-3 0  9993,2 53824  53.2145 104.3718 0001178  60.5891 339.2561 15.73216482  5489,6727.848000000001,91.532,350.506,348.921,0.0
53824.0,STARLINK-4757,PAYLOAD,2022-10-20 14:00:01,15.73201654,0.0001144,53.2151,102.7211,58.8078,69.9784,1.7928e-05,1.897e-05,0.0,0 STARLINK-4757,1 53824U 22114G   22293.58334491  .00001897  00000-0  17928-4 0  9993,2 53824  53.2151 102.7211 0001144  58.8078  69.9784 15.73201654  1302,6727.89,91.533,350.525,348.986,0.0
53824.0,STARLINK-4757,PAYLOAD,2022-10-20 22:00:00,15.73122832,0.0001460999999999,53.2151,101.0735,46.6738,171.00099999999995,0.00023379,0.00032209,0.0,0 STARLINK-4757,1 53824U 22114G   22293.91667824  .00032209  00000-0  23379-3 0  9996,2 53824  53.2151 101.0735 0001461  46.6738 171.0010 15.73122832  1302,6728.115,91.538,350.963,348.997,0.0
53824.0,STARLINK-4757,PAYLOAD,2022-10-21 06:00:00,15.73130079,0.0001301,53.2155,99.4219,53.3801,253.2272,0.0011415,0.00162225,0.0,0 STARLINK-4757,1 53824U 22114G   22294.25001157  .00162225  00000-0  11415-2 0  9994,2 53824  53.2155  99.4219 0001301  53.3801 253.2272 15.73130079  5648,6728.095,91.537,350.835,349.084,0.0
53824.0,STARLINK-4757,PAYLOAD,2022-10-21 14:00:01,15.73343882,0.000131,53.2152,97.7735,50.3099,345.2591,-0.00083444,-0.00116832,0.0,0 STARLINK-4757,1 53824U 22114G   22294.58334491 -.00116832  00000-0 -83444-3 0  9997,2 53824  53.2152  97.7735 0001310  50.3099 345.2591 15.73343882  5694,6727.485,91.525,350.231,348.469,0.0
53824.0,STARLINK-4757,PAYLOAD,2022-10-21 22:00:00,15.73240341,0.0001588999999999,53.2139,96.1255,43.9622,80.6287,-0.00033491,-0.00047441,0.0,0 STARLINK-4757,1 53824U 22114G   22294.91667824 -.00047441  00000-0 -33491-3 0  9999,2 53824  53.2139  96.1255 0001589  43.9622  80.6287 15.73240341  1309,6727.78,91.531,350.714,348.576,0.0
53824.0,STARLINK-4757,PAYLOAD,2022-10-22 14:00:01,15.73167633,0.0001447,53.2141,92.8247,47.3164,255.1574,0.00029414,0.00040804,0.0,0 STARLINK-4757,1 53824U 22114G   22295.58334491  .00040804  00000-0  29414-3 0  9998,2 53824  53.2141  92.8247 0001447  47.3164 255.1574 15.73167633  1308,6727.986999999999,91.535,350.826,348.879,0.0
53824.0,STARLINK-4757,PAYLOAD,2022-10-22 22:00:00,15.73269269,0.0001665,53.214,91.1764,35.4478,355.9298,0.00023331,0.00032347,0.0,0 STARLINK-4757,1 53824U 22114G   22295.91667824  .00032347  00000-0  23331-3 0  9999,2 53824  53.2140  91.1764 0001665  35.4478 355.9298 15.73269269  1301,6727.698,91.529,350.68300000000005,348.4430000000001,0.0
53824.0,STARLINK-4757,PAYLOAD,2022-10-23 00:00:02,15.73336297,0.0001633,53.2141,90.7634,37.4161,106.2632,-0.00076492,-0.00107242,0.0,0 STARLINK-4757,1 53824U 22114G   22296.00002315 -.00107242  00000-0 -76492-3 0  9993,2 53824  53.2141  90.7634 0001633  37.4161 106.2632 15.73336297  5926,6727.507,91.525,350.47,348.273,0.0
53824.0,STARLINK-4757,PAYLOAD,2022-10-23 14:00:01,15.73262752,0.0001636999999999,53.2142,87.8756,42.5117,166.8756,-6.620600000000001e-05,-9.927e-05,0.0,0 STARLINK-4757,1 53824U 22114G   22296.58334491 -.00009927  00000-0 -66206-4 0  9993,2 53824  53.2142  87.8756 0001637  42.5117 166.8756 15.73262752  1302,6727.715999999999,91.53,350.68300000000005,348.48,0.0
53824.0,STARLINK-4757,PAYLOAD,2022-10-23 22:00:00,15.73251873,0.0001739,53.2137,86.2269,32.9267,265.4607,-0.00040681,-0.00057455,0.0,0 STARLINK-4757,1 53824U 22114G   22296.91667824 -.00057455  00000-0 -40681-3 0  9996,2 53824  53.2137  86.2269 0001739  32.9267 265.4607 15.73251873  1303,6727.746999999999,91.53,350.782,348.44199999999995,0.0
53824.0,STARLINK-4757,PAYLOAD,2022-10-24 06:00:00,15.73186189,0.0001439,53.2138,84.575,33.4121,353.9599,-0.00098401,-0.00136425,0.0,0 STARLINK-4757,1 53824U 22114G   22297.25001157 -.00136425  00000-0 -98401-3 0  9993,2 53824  53.2138  84.5750 0001439  33.4121 353.9599 15.73186189  6116,6727.935,91.534,350.76800000000014,348.831,0.0
